CCSDS_OEM_VERS = 1.0
CREATION_DATE  = 2017-05-11T11:36:21
ORIGINATOR     = GMAT USER

META_START
OBJECT_NAME          = MOPSSat_alt_35785_km_RAAN_180_081
OBJECT_ID            = SatId
CENTER_NAME          = Earth
REF_FRAME            = EME2000
TIME_SYSTEM          = UTC
START_TIME           = 2017-01-01T00:00:00.000
USEABLE_START_TIME   = 2017-01-01T00:00:00.000
USEABLE_STOP_TIME    = 2017-01-02T00:00:00.000
STOP_TIME            = 2017-01-02T00:00:00.000
INTERPOLATION        = Lagrange
INTERPOLATION_DEGREE = 7 
META_STOP


                                                                                   

2017-01-01T07:10:50.000   1.383667992176187e+04  -3.996774950750493e+04  -1.495990082296935e-01   2.905856635739601e+00   9.753272495091420e-01  -4.017960730318989e-05
2017-01-01T07:11:00.000   1.386573484056760e+04  -3.995798570791962e+04  -1.500009919170497e-01   2.905126961371305e+00   9.774326043350571e-01  -4.021712987891856e-05
2017-01-01T07:11:10.000   1.389478245523304e+04  -3.994820085751596e+04  -1.504033507871669e-01   2.904395771482951e+00   9.795374009242789e-01  -4.025464334848277e-05
2017-01-01T07:11:20.000   1.392382275068153e+04  -3.993839496185506e+04  -1.508060847498386e-01   2.903663066516517e+00   9.816416382064461e-01  -4.029214766784718e-05
2017-01-01T07:11:30.000   1.395285571177603e+04  -3.992856802653107e+04  -1.512091937135102e-01   2.902928846916389e+00   9.837453151068704e-01  -4.032964279288305e-05
2017-01-01T07:11:40.000   1.398188132340413e+04  -3.991872005714159e+04  -1.516126775864751e-01   2.902193113127149e+00   9.858484305527087e-01  -4.036712867947794e-05
2017-01-01T07:11:50.000   1.401089957009648e+04  -3.990885105941958e+04  -1.520165362715217e-01   2.901455865603422e+00   9.879509834453055e-01  -4.040460528304556e-05
2017-01-01T07:12:00.000   1.403991043648945e+04  -3.989896103907399e+04  -1.524207696724119e-01   2.900717104797979e+00   9.900529726937226e-01  -4.044207255911955e-05
2017-01-01T07:12:10.000   1.406891390715302e+04  -3.988905000184871e+04  -1.528253776914764e-01   2.899976831166142e+00   9.921543972022615e-01  -4.047953046313386e-05
2017-01-01T07:12:20.000   1.409790996725799e+04  -3.987911795329503e+04  -1.532303602389165e-01   2.899235045148778e+00   9.942552559188128e-01  -4.051697895127465e-05
2017-01-01T07:12:30.000   1.412689860191039e+04  -3.986916489899840e+04  -1.536357172235290e-01   2.898491747189244e+00   9.963555477866264e-01  -4.055441797963142e-05
2017-01-01T07:12:40.000   1.415587979630245e+04  -3.985919084452745e+04  -1.540414485548003e-01   2.897746937729582e+00   9.984552717552507e-01  -4.059184750438756e-05
2017-01-01T07:12:50.000   1.418485353533620e+04  -3.984919579556030e+04  -1.544475541377043e-01   2.897000617219950e+00   1.000554426753262e+00  -4.062926748134954e-05
2017-01-01T07:13:00.000   1.421381980390328e+04  -3.983917975779160e+04  -1.548540338765492e-01   2.896252786111678e+00   1.002653011708533e+00  -4.066667786629260e-05
2017-01-01T07:13:10.000   1.424277858688442e+04  -3.982914273693137e+04  -1.552608876749989e-01   2.895503444857178e+00   1.004751025548203e+00  -4.070407861496605e-05
2017-01-01T07:13:20.000   1.427172986887210e+04  -3.981908473880426e+04  -1.556681154321113e-01   2.894752593917361e+00   1.006848467178581e+00  -4.074146968271778e-05
2017-01-01T07:13:30.000   1.430067363454458e+04  -3.980900576921699e+04  -1.560757170476542e-01   2.894000233751728e+00   1.008945335512246e+00  -4.077885102499468e-05
2017-01-01T07:13:40.000   1.432960986851844e+04  -3.979890583401013e+04  -1.564836924200177e-01   2.893246364822248e+00   1.011041629457362e+00  -4.081622259714596e-05
2017-01-01T07:13:50.000   1.435853855600169e+04  -3.978878493883041e+04  -1.568920414554174e-01   2.892490987576360e+00   1.013137347964988e+00  -4.085358435528378e-05
2017-01-01T07:14:00.000   1.438745968214052e+04  -3.977864308935822e+04  -1.573007640586948e-01   2.891734102463953e+00   1.015232489981762e+00  -4.089093625542267e-05
2017-01-01T07:14:10.000   1.441637323216725e+04  -3.976848029125664e+04  -1.577098601353898e-01   2.890975709933556e+00   1.017327054460613e+00  -4.092827825367653e-05
2017-01-01T07:14:20.000   1.444527919102472e+04  -3.975829655030005e+04  -1.581193295864941e-01   2.890215810441951e+00   1.019421040333552e+00  -4.096561030575693e-05
2017-01-01T07:14:30.000   1.447417754364549e+04  -3.974809187227939e+04  -1.585291723123321e-01   2.889454404447094e+00   1.021514446531892e+00  -4.100293236735041e-05
2017-01-01T07:14:40.000   1.450306827495131e+04  -3.973786626300112e+04  -1.589393882125808e-01   2.888691492408032e+00   1.023607271986222e+00  -4.104024439411179e-05
2017-01-01T07:14:50.000   1.453195136957642e+04  -3.972761972838819e+04  -1.593499771822765e-01   2.887927074792438e+00   1.025699515606358e+00  -4.107754634132343e-05
2017-01-01T07:15:00.000   1.456082681224076e+04  -3.971735227434496e+04  -1.597609391171739e-01   2.887161152066536e+00   1.027791176308374e+00  -4.111483816436068e-05
2017-01-01T07:15:10.000   1.458969458760282e+04  -3.970706390681020e+04  -1.601722739116412e-01   2.886393724699054e+00   1.029882253003945e+00  -4.115211981850793e-05
2017-01-01T07:15:20.000   1.461855468091111e+04  -3.969675463152477e+04  -1.605839814679405e-01   2.885624793143899e+00   1.031972744647542e+00  -4.118939125978325e-05
2017-01-01T07:15:30.000   1.464740707735264e+04  -3.968642445426385e+04  -1.609960616869503e-01   2.884854357857464e+00   1.034062650189229e+00  -4.122665244411388e-05
2017-01-01T07:15:40.000   1.467625176220038e+04  -3.967607338078450e+04  -1.614085144702566e-01   2.884082419294739e+00   1.036151968585352e+00  -4.126390332752051e-05
2017-01-01T07:15:50.000   1.470508872043859e+04  -3.966570141695708e+04  -1.618213397148624e-01   2.883308977919100e+00   1.038240698771392e+00  -4.130114386564984e-05
2017-01-01T07:16:00.000   1.473391793704132e+04  -3.965530856866860e+04  -1.622345373171003e-01   2.882534034195102e+00   1.040328839682146e+00  -4.133837401411815e-05
2017-01-01T07:16:10.000   1.476273939697194e+04  -3.964489484182156e+04  -1.626481071726535e-01   2.881757588588397e+00   1.042416390251687e+00  -4.137559372851603e-05
2017-01-01T07:16:20.000   1.479155308490710e+04  -3.963446024243689e+04  -1.630620491725296e-01   2.880979641573390e+00   1.044503349393376e+00  -4.141280296403774e-05
2017-01-01T07:16:30.000   1.482035898560899e+04  -3.962400477651636e+04  -1.634763632084634e-01   2.880200193623007e+00   1.046589716026822e+00  -4.145000167597584e-05
2017-01-01T07:16:40.000   1.484915708377580e+04  -3.961352845009750e+04  -1.638910491707542e-01   2.879419245212773e+00   1.048675489067050e+00  -4.148718981952363e-05
2017-01-01T07:16:50.000   1.487794736470247e+04  -3.960303126901326e+04  -1.643061069577798e-01   2.878636796802895e+00   1.050760667472360e+00  -4.152436735063924e-05
2017-01-01T07:17:00.000   1.490672981361822e+04  -3.959251323913274e+04  -1.647215364664613e-01   2.877852848856215e+00   1.052845250196341e+00  -4.156153422518003e-05
2017-01-01T07:17:10.000   1.493550441585763e+04  -3.958197436629919e+04  -1.651373375947210e-01   2.877067401833590e+00   1.054929236200267e+00  -4.159869039912668e-05
2017-01-01T07:17:20.000   1.496427115640030e+04  -3.957141465649607e+04  -1.655535102348850e-01   2.876280456206259e+00   1.057012624419753e+00  -4.163583582798226e-05
2017-01-01T07:17:30.000   1.499303002025089e+04  -3.956083411571036e+04  -1.659700542791204e-01   2.875492012445669e+00   1.059095413792279e+00  -4.167297046726912e-05
2017-01-01T07:17:40.000   1.502178099235428e+04  -3.955023274996302e+04  -1.663869696182237e-01   2.874702071025730e+00   1.061177603251046e+00  -4.171009427241770e-05
2017-01-01T07:17:50.000   1.505052405761915e+04  -3.953961056530202e+04  -1.668042561419253e-01   2.873910632422306e+00   1.063259191726690e+00  -4.174720719879966e-05
2017-01-01T07:18:00.000   1.507925920094610e+04  -3.952896756779058e+04  -1.672219137393280e-01   2.873117697112329e+00   1.065340178149311e+00  -4.178430920176212e-05
2017-01-01T07:18:10.000   1.510798640723815e+04  -3.951830376350345e+04  -1.676399422990537e-01   2.872323265573529e+00   1.067420561449237e+00  -4.182140023664089e-05
2017-01-01T07:18:20.000   1.513670566150370e+04  -3.950761915848946e+04  -1.680583417107269e-01   2.871527338281640e+00   1.069500340564477e+00  -4.185848025889615e-05
2017-01-01T07:18:30.000   1.516541694878771e+04  -3.949691375879612e+04  -1.684771118639928e-01   2.870729915712236e+00   1.071579514435745e+00  -4.189554922401999e-05
2017-01-01T07:18:40.000   1.519412025417182e+04  -3.948618757046969e+04  -1.688962526485138e-01   2.869930998340735e+00   1.073658082006455e+00  -4.193260708753904e-05
2017-01-01T07:18:50.000   1.522281556284247e+04  -3.947544059952897e+04  -1.693157639549836e-01   2.869130586640448e+00   1.075736042227666e+00  -4.196965380509276e-05
2017-01-01T07:19:00.000   1.525150285998844e+04  -3.946467285200411e+04  -1.697356456736170e-01   2.868328681085466e+00   1.077813394050656e+00  -4.200668933231190e-05
2017-01-01T07:19:10.000   1.528018213079064e+04  -3.945388433394073e+04  -1.701558976939955e-01   2.867525282150977e+00   1.079890136426186e+00  -4.204371362480085e-05
2017-01-01T07:19:20.000   1.530885336039302e+04  -3.944307505140932e+04  -1.705765199046722e-01   2.866720390313951e+00   1.081966268302386e+00  -4.208072663811500e-05
2017-01-01T07:19:30.000   1.533751653388027e+04  -3.943224501051547e+04  -1.709975121928075e-01   2.865914006053914e+00   1.084041788623148e+00  -4.211772832771668e-05
2017-01-01T07:19:40.000   1.536617163636187e+04  -3.942139421736734e+04  -1.714188744454185e-01   2.865106129850523e+00   1.086116696334214e+00  -4.215471864908950e-05
2017-01-01T07:19:50.000   1.539481865259534e+04  -3.941052267822070e+04  -1.718406065437903e-01   2.864296762194352e+00   1.088190990355886e+00  -4.219169755723534e-05
